GSAT-10                 
1 38779U 12051B   26183.17127174 -.00000154  00000+0  00000+0 0  9992
2 38779   0.0508 248.4929 0008124 204.4586 331.9370  1.00270706 50241
INTELSAT 23 (IS-23)     
1 38867U 12057A   26183.21562853 -.00000274  00000+0  00000+0 0  9991
2 38867   0.0115 358.8792 0000297 208.3736  97.6196  1.00267457 50106
BEIDOU-2 G6             
1 38953U 12059A   26183.10024042 -.00000167  00000+0  00000+0 0  9991
2 38953   4.4577  73.3676 0009492 329.6340 357.2494  1.00270555 50059
LUCH-5B                 
1 38977U 12061A   26182.94659941 -.00000132  00000+0  00000+0 0  9995
2 38977  10.5143  49.7338 0002919 135.3494  59.4447  1.00272720 49753
YAMAL 300K              
1 38978U 12061B   26182.18586419  .00000000  00000+0  00000+0 0  9994
2 38978   0.0155   2.2459 0003378 296.2491 230.6411  1.00304594 49774
STAR ONE C3             
1 38991U 12062A   26183.21129517 -.00000238  00000+0  00000+0 0  9991
2 38991   0.0137 307.5196 0002636 167.1091 166.6977  1.00270828 49919
EUTELSAT 21B            
1 38992U 12062B   26183.23044860  .00000141  00000+0  00000+0 0  9993
2 38992   0.0665 346.1436 0002867 107.1160 291.5926  1.00274954 49971
ECHOSTAR 16             
1 39008U 12065A   26182.71496100 -.00000271  00000+0  00000+0 0  9990
2 39008   0.0045 115.4567 0001943 350.1326  10.0620  1.00271074 49797
ZHONGXING-12            
1 39017U 12067A   26183.11795764 -.00000196  00000+0  00000+0 0  9991
2 39017   0.0386  90.7752 0003205 359.3151 320.0484  1.00272471 49655
EUTELSAT 70B            
1 39020U 12069A   26183.16884506 -.00000033  00000+0  00000+0 0  9995
2 39020   0.0610   5.7865 0003465  94.1240 311.5745  1.00271050 49658
YAMAL 402               
1 39022U 12070A   26183.23703529  .00000096  00000+0  00000+0 0  9990
2 39022   1.3014  83.9838 0004031  14.4786 322.0438  1.00272695 49540
SKYNET 5D               
1 39034U 12075A   26183.23660196  .00000110  00000+0  00000+0 0  9997
2 39034   0.0659 356.6154 0003881 111.2055 310.3967  1.00270787 49303
MEXSAT 3                
1 39035U 12075B   26183.20336896 -.00000016  00000+0  00000+0 0  9998
2 39035   0.0203 289.7100 0001158 150.2180 158.7400  1.00276305  7204
TDRS 11                 
1 39070U 13004A   26183.31848663  .00000089  00000+0  00000+0 0  9991
2 39070   3.5429  31.5040 0004909  25.6940 163.4155  1.00274840 46848
AMAZONAS 3              
1 39078U 13006A   26183.21406852 -.00000272  00000+0  00000+0 0  9995
2 39078   0.0290 208.5583 0003253 296.0060 151.7654  1.00271867 45063
AZERSPACE 1             
1 39079U 13006B   26183.16399170  .00000144  00000+0  00000+0 0  9991
2 39079   0.0187  15.2375 0001844 112.7475 257.2439  1.00271369 48950
SBIRS GEO-2 (USA 241)   
1 39120U 13011A   26182.97399683 -.00000278  00000+0  00000+0 0  9990
2 39120   4.5208  52.5125 0001944  41.5086 126.8294  1.00271354 48689
EUTELSAT 117 WEST A     
1 39122U 13012A   26183.20302228 -.00000002  00000+0  00000+0 0  9994
2 39122   0.0176 329.0771 0003005 132.7537 134.6911  1.00271499 48581
ANIK G1                 
1 39127U 13014A   26183.20492896  .00000000  00000+0  00000+0 0  9999
2 39127   0.0200  22.1868 0001919  84.7550 139.7791  1.00269879 48407
ZHONGXING-11            
1 39157U 13020A   26181.73080771 -.00000280  00000+0  00000+0 0  9991
2 39157   0.0127 359.4962 0002627  81.5149 198.7846  1.00270396 48036
EUTELSAT 7B             
1 39163U 13022A   26183.22750191  .00000058  00000+0  00000+0 0  9998
2 39163   0.0661 345.2417 0004371  61.5791 322.3556  1.00270523 48094
WGS F5 (USA 243)        
1 39168U 13024A   26182.85927036  .00000000  00000+0  00000+0 0  9994
2 39168   0.0228  25.0862 0000432  96.6941  54.9697  1.00268159 47326
SES-6                   
1 39172U 13026A   26183.21814187 -.00000250  00000+0  00000+0 0  9992
2 39172   0.0224 331.0762 0002795 121.3944 225.8194  1.00272929 47870
IRNSS-1A                
1 39199U 13034A   26182.73810925  .00000064  00000+0  00000+0 0  9994
2 39199  35.7520  63.6617 0017942 181.1700 355.7331  1.00279201 47511
MUOS-2                  
1 39206U 13036A   26182.90370936 -.00000005  00000+0  00000+0 0  9993
2 39206   5.0240  45.5482 0051872 176.6656 195.0459  1.00270135 47341
ALPHASAT                
1 39215U 13038A   26183.23105527  .00000144  00000+0  00000+0 0  9997
2 39215   2.9984   1.2103 0002250 112.7149 274.4163  1.00270296 44175
INSAT-3D                
1 39216U 13038B   26183.25180054 -.00000330  00000+0  00000+0 0  9996
2 39216   1.9629  82.3645 0001074  12.9907  45.0835  1.00269053 47235
WGS F6 (USA 244)        
1 39222U 13041A   26182.91410941  .00000099  00000+0  00000+0 0  9991
2 39222   0.0188  23.5411 0001686 196.8044 253.5174  1.00274351 46219
ES'HAIL 1               
1 39233U 13044A   26183.23122860  .00000154  00000+0  00000+0 0  9994
2 39233   0.0482 346.4939 0002591 111.0903 291.4308  1.00270393 46772
GSAT-7                  
1 39234U 13044B   26183.09824707 -.00000066  00000+0  00000+0 0  9991
2 39234   0.1182  90.9131 0002640 183.2484 115.3032  1.00271895 45401
AMOS-4                  
1 39237U 13045A   26183.16771838  .00000018  00000+0  00000+0 0  9995
2 39237   0.0143  60.9125 0002222  13.1062 331.5644  1.00271757 47106
AEHF-3 (USA 246)        
1 39256U 13050A   26183.16294837  .00000037  00000+0  00000+0 0  9992
2 39256   5.3299  67.0481 0088295 187.6678 319.9776  1.00268089 45809
