OBJECT_NAME,OBJECT_ID,EPOCH,MEAN_MOTION,ECCENTRICITY,INCLINATION,RA_OF_ASC_NODE,ARG_OF_PERICENTER,MEAN_ANOMALY,EPHEMERIS_TYPE,CLASSIFICATION_TYPE,NORAD_CAT_ID,ELEMENT_SET_NO,REV_AT_EPOCH,BSTAR,MEAN_MOTION_DOT,MEAN_MOTION_DDOT
GSAT-10,2012-051B,2026-07-02T04:06:37.878336,1.00270706,.00081245,0.0508,248.4929,204.4586,331.9370,0,U,38779,999,5024,0,-.154E-5,0
INTELSAT 23 (IS-23),2012-057A,2026-07-02T05:10:30.304992,1.00267457,.0000297,0.0115,358.8792,208.3736,97.6196,0,U,38867,999,5010,0,-.274E-5,0
BEIDOU-2 G6,2012-059A,2026-07-02T02:24:20.772288,1.00270555,.00094922,4.4577,73.3676,329.6340,357.2494,0,U,38953,999,5005,0,-.167E-5,0
LUCH-5B,2012-061A,2026-07-01T22:43:06.189024,1.00272720,.00029199,10.5143,49.7338,135.3494,59.4447,0,U,38977,999,4975,0,-.132E-5,0
YAMAL 300K,2012-061B,2026-07-01T04:27:38.666016,1.00304594,.0003378,0.0155,2.2459,296.2491,230.6411,0,U,38978,999,4977,0,0,0
STAR ONE C3,2012-062A,2026-07-02T05:04:15.902688,1.00270828,.0002636,0.0137,307.5196,167.1091,166.6977,0,U,38991,999,4991,0,-.238E-5,0
EUTELSAT 21B,2012-062B,2026-07-02T05:31:50.759040,1.00274954,.0002867,0.0665,346.1436,107.1160,291.5926,0,U,38992,999,4997,0,.141E-5,0
ECHOSTAR 16,2012-065A,2026-07-01T17:09:32.630400,1.00271074,.0001943,0.0045,115.4567,350.1326,10.0620,0,U,39008,999,4979,0,-.271E-5,0
ZHONGXING-12,2012-067A,2026-07-02T02:49:51.540096,1.00272471,.00032054,0.0386,90.7752,359.3151,320.0484,0,U,39017,999,4965,0,-.196E-5,0
EUTELSAT 70B,2012-069A,2026-07-02T04:03:08.213184,1.00271050,.00034651,0.0610,5.7865,94.1240,311.5745,0,U,39020,999,4965,0,-.33E-6,0
YAMAL 402,2012-070A,2026-07-02T05:41:19.849056,1.00272695,.00040313,1.3014,83.9838,14.4786,322.0438,0,U,39022,999,4954,0,.96E-6,0
SKYNET 5D,2012-075A,2026-07-02T05:40:42.409344,1.00270787,.00038816,0.0659,356.6154,111.2055,310.3967,0,U,39034,999,4930,0,.11E-5,0
MEXSAT 3,2012-075B,2026-07-02T04:52:51.078144,1.00276305,.00011581,0.0203,289.7100,150.2180,158.7400,0,U,39035,999,720,0,-.16E-6,0
TDRS 11,2013-004A,2026-07-02T07:38:37.244832,1.00274840,.00049098,3.5429,31.5040,25.6940,163.4155,0,U,39070,999,4684,0,.89E-6,0
AMAZONAS 3,2013-006A,2026-07-02T05:08:15.520128,1.00271867,.00032533,0.0290,208.5583,296.0060,151.7654,0,U,39078,999,4506,0,-.272E-5,0
AZERSPACE 1,2013-006B,2026-07-02T03:56:08.882880,1.00271369,.00018446,0.0187,15.2375,112.7475,257.2439,0,U,39079,999,4895,0,.144E-5,0
SBIRS GEO-2 (USA 241),2013-011A,2026-07-01T23:22:33.326112,1.00271354,.00019448,4.5208,52.5125,41.5086,126.8294,0,U,39120,999,4868,0,-.278E-5,0
EUTELSAT 117 WEST A,2013-012A,2026-07-02T04:52:21.124992,1.00271499,.00030054,0.0176,329.0771,132.7537,134.6911,0,U,39122,999,4858,0,-.2E-7,0
ANIK G1,2013-014A,2026-07-02T04:55:05.862144,1.00269879,.0001919,0.0200,22.1868,84.7550,139.7791,0,U,39127,999,4840,0,0,0
ZHONGXING-11,2013-020A,2026-06-30T17:32:21.786144,1.00270396,.00026278,0.0127,359.4962,81.5149,198.7846,0,U,39157,999,4803,0,-.28E-5,0
EUTELSAT 7B,2013-022A,2026-07-02T05:27:36.165024,1.00270523,.0004371,0.0661,345.2417,61.5791,322.3556,0,U,39163,999,4809,0,.58E-6,0
WGS F5 (USA 243),2013-024A,2026-07-01T20:37:20.959104,1.00268159,.00004323,0.0228,25.0862,96.6941,54.9697,0,U,39168,999,4732,0,0,0
SES-6,2013-026A,2026-07-02T05:14:07.457568,1.00272929,.00027956,0.0224,331.0762,121.3944,225.8194,0,U,39172,999,4787,0,-.25E-5,0
IRNSS-1A,2013-034A,2026-07-01T17:42:52.639200,1.00279201,.00179426,35.7520,63.6617,181.1700,355.7331,0,U,39199,999,4751,0,.64E-6,0
MUOS-2,2013-036A,2026-07-01T21:41:20.488704,1.00270135,.00518722,5.0240,45.5482,176.6656,195.0459,0,U,39206,999,4734,0,-.5E-7,0
ALPHASAT,2013-038A,2026-07-02T05:32:43.175328,1.00270296,.00022501,2.9984,1.2103,112.7149,274.4163,0,U,39215,999,4417,0,.144E-5,0
INSAT-3D,2013-038B,2026-07-02T06:02:35.566656,1.00269053,.00010741,1.9629,82.3645,12.9907,45.0835,0,U,39216,999,4723,0,-.33E-5,0
WGS F6 (USA 244),2013-041A,2026-07-01T21:56:19.053024,1.00274351,.00016862,0.0188,23.5411,196.8044,253.5174,0,U,39222,999,4621,0,.99E-6,0
ES'HAIL 1,2013-044A,2026-07-02T05:32:58.151040,1.00270393,.00025914,0.0482,346.4939,111.0903,291.4308,0,U,39233,999,4677,0,.154E-5,0
GSAT-7,2013-044B,2026-07-02T02:21:28.546848,1.00271895,.00026407,0.1182,90.9131,183.2484,115.3032,0,U,39234,999,4540,0,-.66E-6,0
AMOS-4,2013-045A,2026-07-02T04:01:30.868032,1.00271757,.00022229,0.0143,60.9125,13.1062,331.5644,0,U,39237,999,4710,0,.18E-6,0
AEHF-3 (USA 246),2013-050A,2026-07-02T03:54:38.739168,1.00268089,.00882959,5.3299,67.0481,187.6678,319.9776,0,U,39256,999,4580,0,.37E-6,0
